KUIPER-00610            
1 69292U 26118AB  26155.25004630  .00041576  00000+0  10994-2 0  9992
2 69292  51.8710 115.7891 0003084  89.4957 239.8281 15.37993668  1394
KUIPER-00613            
1 69293U 26118AC  26155.25004630  .00038740  00000+0  10946-2 0  9999
2 69293  51.8623 115.8774 0009817 133.8148 158.0505 15.35928576  1301
KUIPER-00618            
1 69294U 26118AD  26155.25004630  .00044056  00000+0  11492-2 0  9994
2 69294  51.8710 115.7727 0002333  57.4910 279.3392 15.38388963  1304
KUIPER-00620            
1 69295U 26118AE  26155.25004630  .00042732  00000+0  11263-2 0  9990
2 69295  51.8707 115.7875 0003171  77.0025 253.9917 15.38081921  1935
STARLINK-37501          
1 69296U 26119A   26155.25004630 -.02414285  15985-2 -66497-2 0  9992
2 69296  97.2834 180.3123 0001029  98.4309 295.5804 15.94109113  1817
STARLINK-37496          
1 69297U 26119B   26155.25004630 -.02429112  16214-2 -66207-2 0  9993
2 69297  97.2831 180.3130 0001146 100.0481 295.4272 15.94308909  1816
STARLINK-37519          
1 69298U 26119C   26155.25004630 -.02431542  16322-2 -64870-2 0  9998
2 69298  97.2831 180.3148 0001046  93.4514 306.2599 15.94713601  1819
STARLINK-37455          
1 69299U 26119D   26155.25004630 -.02415390  16073-2 -65125-2 0  9999
2 69299  97.2830 180.3135 0001095  97.9102 299.2524 15.94512984  1811
STARLINK-37456          
1 69300U 26119E   26155.25004630 -.02393228  15856-2 -63238-2 0  9998
2 69300  97.2830 180.3153 0001105 106.8642 294.1918 15.94892532  1816
STARLINK-37630          
1 69301U 26119F   26155.25004630 -.02379836  15720-2 -62231-2 0  9990
2 69301  97.2830 180.3160 0001140 110.1598 292.5296 15.95088169  1974
STARLINK-37804          
1 69302U 26119G   26155.25004630 -.02370772  15639-2 -61347-2 0  9997
2 69302  97.2829 180.3165 0001144 106.3880 298.0132 15.95284350  1973
STARLINK-37730          
1 69303U 26119H   26155.25004630 -.02360118  15536-2 -60468-2 0  9990
2 69303  97.2830 180.3173 0001145  97.7038 308.3632 15.95469669  1972
STARLINK-37731          
1 69304U 26119J   26155.25004630 -.02321657  15073-2 -59017-2 0  9990
2 69304  97.2829 180.3177 0001252  76.0226 331.4965 15.95613727  1975
STARLINK-37734          
1 69305U 26119K   26155.25004630 -.02317306  15052-2 -58296-2 0  9992
2 69305  97.2831 180.3184 0001210  79.0202 330.2066 15.95807748  1975
STARLINK-37701          
1 69306U 26119L   26155.25004630 -.02286219  14690-2 -57024-2 0  9996
2 69306  97.2829 180.3187 0001290  71.3519 339.1165 15.95964846  1971
STARLINK-37732          
1 69307U 26119M   26155.25004630 -.02280205  14646-2 -56323-2 0  9998
2 69307  97.2829 180.3196 0001220  82.8324 329.1818 15.96145384  1979
STARLINK-37689          
1 69308U 26119N   26155.25004630 -.02255913  14372-2 -55238-2 0  9997
2 69308  97.2827 180.3199 0001234  74.2201 339.1091 15.96305772  1978
STARLINK-37619          
1 69309U 26119P   26155.25004630 -.02236142  14157-2 -54262-2 0  9998
2 69309  97.2826 180.3205 0001220  81.3745 333.3961 15.96471326  1974
STARLINK-37794          
1 69310U 26119Q   26155.25004630 -.02215949  13937-2 -53312-2 0  9992
2 69310  97.2828 180.3211 0001228  75.1781 340.9024 15.96628569  1971
STARLINK-37795          
1 69311U 26119R   26155.25004630 -.02211576  13912-2 -52707-2 0  9995
2 69311  97.2826 180.3217 0001342  76.2732 341.2771 15.96801714  1979
STARLINK-37790          
1 69312U 26119S   26155.25004630 -.02186239  13631-2 -51667-2 0  9995
2 69312  97.2825 180.3222 0001283  72.0560 346.8635 15.96954567  1977
STARLINK-37676          
1 69313U 26119T   26155.25004630 -.02170699  13471-2 -50852-2 0  9996
2 69313  97.2825 180.3230 0001206  76.2222 344.1600 15.97114567  1975
STARLINK-37617          
1 69314U 26119U   26155.25004630 -.02157812  13344-2 -50077-2 0  9997
2 69314  97.2825 180.3233 0001258  75.5136 346.4787 15.97285738  1972
STARLINK-37627          
1 69315U 26119V   26155.25004630 -.02144510  13209-2 -49357-2 0  9998
2 69315  97.2825 180.3242 0001191  80.3078 342.9879 15.97436499  1973
STARLINK-37738          
1 69316U 26119W   26155.25004630 -.02140390  13185-2 -48828-2 0  9996
2 69316  97.2824 180.3248 0001287  75.7616 348.9368 15.97597392  1970
STARLINK-37799          
1 69317U 26119X   26155.25004630 -.02121287  12984-2 -47980-2 0  9995
2 69317  97.2824 180.3255 0001277  69.1514 357.0513 15.97751732  1920
STARLINK-37802          
1 69318U 26119Y   26155.25004630 -.02104132  12806-2 -47196-2 0  9998
2 69318  97.2826 180.3261 0001311  77.9026 349.6826 15.97902045  1978
STARLINK-37803          
1 69319U 26119Z   26155.25004630 -.02091978  12684-2 -46577-2 0  9998
2 69319  97.2827 180.3266 0001312  77.4618 351.2064 15.98035599  1928
GUOWANG TEST OBJECT A   
1 69320U 26120A   26152.22676039  .00010528  00000+0  28022-3 0  9994
2 69320  54.9978  99.6159 0009159 274.0654  85.9327 15.38786350   230
