OBJECT_NAME,OBJECT_ID,EPOCH,MEAN_MOTION,ECCENTRICITY,INCLINATION,RA_OF_ASC_NODE,ARG_OF_PERICENTER,MEAN_ANOMALY,EPHEMERIS_TYPE,CLASSIFICATION_TYPE,NORAD_CAT_ID,ELEMENT_SET_NO,REV_AT_EPOCH,BSTAR,MEAN_MOTION_DOT,MEAN_MOTION_DDOT
KUIPER-00610,2026-118AB,2026-06-04T06:00:04.000320,15.37993668,.00030848,51.8710,115.7891,89.4957,239.8281,0,U,69292,999,139,.10993927E-2,.41576E-3,0
KUIPER-00613,2026-118AC,2026-06-04T06:00:04.000320,15.35928576,.00098171,51.8623,115.8774,133.8148,158.0505,0,U,69293,999,130,.10946178E-2,.3874E-3,0
KUIPER-00618,2026-118AD,2026-06-04T06:00:04.000320,15.38388963,.00023337,51.8710,115.7727,57.4910,279.3392,0,U,69294,999,130,.11491925E-2,.44056E-3,0
KUIPER-00620,2026-118AE,2026-06-04T06:00:04.000320,15.38081921,.00031715,51.8707,115.7875,77.0025,253.9917,0,U,69295,999,193,.11262811E-2,.42732E-3,0
STARLINK-37501,2026-119A,2026-06-04T06:00:04.000320,15.94109113,.00010296,97.2834,180.3123,98.4309,295.5804,0,U,69296,999,181,-.66497319E-2,-.2414285E-1,.15984615E-2
STARLINK-37496,2026-119B,2026-06-04T06:00:04.000320,15.94308909,.00011468,97.2831,180.3130,100.0481,295.4272,0,U,69297,999,181,-.66206751E-2,-.2429112E-1,.16213767E-2
STARLINK-37519,2026-119C,2026-06-04T06:00:04.000320,15.94713601,.00010465,97.2831,180.3148,93.4514,306.2599,0,U,69298,999,181,-.64870499E-2,-.2431542E-1,.16321722E-2
STARLINK-37455,2026-119D,2026-06-04T06:00:04.000320,15.94512984,.00010957,97.2830,180.3135,97.9102,299.2524,0,U,69299,999,181,-.65124767E-2,-.241539E-1,.16073312E-2
STARLINK-37456,2026-119E,2026-06-04T06:00:04.000320,15.94892532,.00011057,97.2830,180.3153,106.8642,294.1918,0,U,69300,999,181,-.63237992E-2,-.2393228E-1,.15856425E-2
STARLINK-37630,2026-119F,2026-06-04T06:00:04.000320,15.95088169,.00011403,97.2830,180.3160,110.1598,292.5296,0,U,69301,999,197,-.6223055E-2,-.2379836E-1,.15719615E-2
STARLINK-37804,2026-119G,2026-06-04T06:00:04.000320,15.95284350,.0001144,97.2829,180.3165,106.3880,298.0132,0,U,69302,999,197,-.61346915E-2,-.2370772E-1,.15638822E-2
STARLINK-37730,2026-119H,2026-06-04T06:00:04.000320,15.95469669,.0001145,97.2830,180.3173,97.7038,308.3632,0,U,69303,999,197,-.60467573E-2,-.2360118E-1,.15535776E-2
STARLINK-37731,2026-119J,2026-06-04T06:00:04.000320,15.95613727,.00012522,97.2829,180.3177,76.0226,331.4965,0,U,69304,999,197,-.59017296E-2,-.2321657E-1,.15072943E-2
STARLINK-37734,2026-119K,2026-06-04T06:00:04.000320,15.95807748,.00012106,97.2831,180.3184,79.0202,330.2066,0,U,69305,999,197,-.58296335E-2,-.2317306E-1,.15052014E-2
STARLINK-37701,2026-119L,2026-06-04T06:00:04.000320,15.95964846,.000129,97.2829,180.3187,71.3519,339.1165,0,U,69306,999,197,-.57024069E-2,-.2286219E-1,.14689982E-2
STARLINK-37732,2026-119M,2026-06-04T06:00:04.000320,15.96145384,.00012203,97.2829,180.3196,82.8324,329.1818,0,U,69307,999,197,-.56323157E-2,-.2280205E-1,.14645899E-2
STARLINK-37689,2026-119N,2026-06-04T06:00:04.000320,15.96305772,.00012349,97.2827,180.3199,74.2201,339.1091,0,U,69308,999,197,-.55237974E-2,-.2255913E-1,.14372457E-2
STARLINK-37619,2026-119P,2026-06-04T06:00:04.000320,15.96471326,.00012207,97.2826,180.3205,81.3745,333.3961,0,U,69309,999,197,-.54262026E-2,-.2236142E-1,.14157386E-2
STARLINK-37794,2026-119Q,2026-06-04T06:00:04.000320,15.96628569,.00012288,97.2828,180.3211,75.1781,340.9024,0,U,69310,999,197,-.53311721E-2,-.2215949E-1,.1393732E-2
STARLINK-37795,2026-119R,2026-06-04T06:00:04.000320,15.96801714,.00013424,97.2826,180.3217,76.2732,341.2771,0,U,69311,999,197,-.52707156E-2,-.2211576E-1,.13912276E-2
STARLINK-37790,2026-119S,2026-06-04T06:00:04.000320,15.96954567,.00012836,97.2825,180.3222,72.0560,346.8635,0,U,69312,999,197,-.51667114E-2,-.2186239E-1,.13631235E-2
STARLINK-37676,2026-119T,2026-06-04T06:00:04.000320,15.97114567,.00012065,97.2825,180.3230,76.2222,344.1600,0,U,69313,999,197,-.50851839E-2,-.2170699E-1,.13470525E-2
STARLINK-37617,2026-119U,2026-06-04T06:00:04.000320,15.97285738,.00012589,97.2825,180.3233,75.5136,346.4787,0,U,69314,999,197,-.50076725E-2,-.2157812E-1,.13343809E-2
STARLINK-37627,2026-119V,2026-06-04T06:00:04.000320,15.97436499,.00011917,97.2825,180.3242,80.3078,342.9879,0,U,69315,999,197,-.49356911E-2,-.214451E-1,.13209442E-2
STARLINK-37738,2026-119W,2026-06-04T06:00:04.000320,15.97597392,.00012871,97.2824,180.3248,75.7616,348.9368,0,U,69316,999,197,-.48828177E-2,-.214039E-1,.1318544E-2
STARLINK-37799,2026-119X,2026-06-04T06:00:04.000320,15.97751732,.0001277,97.2824,180.3255,69.1514,357.0513,0,U,69317,999,192,-.47980029E-2,-.2121287E-1,.12984018E-2
STARLINK-37802,2026-119Y,2026-06-04T06:00:04.000320,15.97902045,.00013114,97.2826,180.3261,77.9026,349.6826,0,U,69318,999,197,-.47196221E-2,-.2104132E-1,.12805992E-2
STARLINK-37803,2026-119Z,2026-06-04T06:00:04.000320,15.98035599,.00013122,97.2827,180.3266,77.4618,351.2064,0,U,69319,999,192,-.46576927E-2,-.2091978E-1,.12684499E-2
GUOWANG TEST OBJECT A,2026-120A,2026-06-01T05:26:32.097696,15.38786350,.00091599,54.9978,99.6159,274.0654,85.9327,0,U,69320,999,23,.28022468E-3,.10528E-3,0
